{"type": "FeatureCollection", "features": [ {"type": "Feature", "properties": {"norad_id": 66479, "name": "STARLINK-35581", "group": "last-30-days", "lat": 22.41533516091113, "lon": -86.76417040007925, "alt_km": 398.55526833754357, "timestamp": "2025-12-04T10:51:48.875890+00:00", "meta": {"OBJECT_NAME": "STARLINK-35581", "OBJECT_ID": "2025-262Z", "EPOCH": "2025-12-04T04:00:03.000096", "MEAN_MOTION": 15.56652243, "ECCENTRICITY": 0.0001735, "INCLINATION": 42.9996, "RA_OF_ASC_NODE": 121.196, "ARG_OF_PERICENTER": 271.7036, "MEAN_ANOMALY": 70.5756, "EPHEMERIS_TYPE": 0, "CLASSIFICATION_TYPE": "U", "NORAD_CAT_ID": 66479, "ELEMENT_SET_NO": 999, "REV_AT_EPOCH": 426, "BSTAR": -0.033455, "MEAN_MOTION_DOT": -0.0217046, "MEAN_MOTION_DDOT": 0}, "tle": {"line1": "1 66479U 25262Z   25338.16670139 -.02170460  00000+0 -33455-1 0  9995", "line2": "2 66479  42.9996 121.1960 0001735 271.7036  70.5756 15.56652243  4266"}}, "geometry": {"type": "Point", "coordinates": [-86.76417040007925, 22.41533516091113]}}, {"type": "Feature", "properties": {"norad_id": 66480, "name": "STARLINK-35670", "group": "last-30-days", "lat": 18.828007861063053, "lon": -81.96937787096591, "alt_km": 399.0253834036257, "timestamp": "2025-12-04T10:51:48.875900+00:00", "meta": {"OBJECT_NAME": "STARLINK-35670", "OBJECT_ID": "2025-262AA", "EPOCH": "2025-12-04T04:00:03.000096", "MEAN_MOTION": 15.56649626, "ECCENTRICITY": 0.0001712, "INCLINATION": 42.9996, "RA_OF_ASC_NODE": 121.1812, "ARG_OF_PERICENTER": 272.5239, "MEAN_ANOMALY": 75.5079, "EPHEMERIS_TYPE": 0, "CLASSIFICATION_TYPE": "U", "NORAD_CAT_ID": 66480, "ELEMENT_SET_NO": 999, "REV_AT_EPOCH": 426, "BSTAR": -0.033398, "MEAN_MOTION_DOT": -0.02166956, "MEAN_MOTION_DDOT": 0}, "tle": {"line1": "1 66480U 25262AA  25338.16670139 -.02166956  00000+0 -33398-1 0  9998", "line2": "2 66480  42.9996 121.1812 0001712 272.5239  75.5079 15.56649626  4267"}}, "geometry": {"type": "Point", "coordinates": [-81.96937787096591, 18.828007861063053]}}, {"type": "Feature", "properties": {"norad_id": 66481, "name": "STARLINK-35698", "group": "last-30-days", "lat": 17.604766798368843, "lon": -80.4193604682327, "alt_km": 399.1965122448282, "timestamp": "2025-12-04T10:51:48.875910+00:00", "meta": {"OBJECT_NAME": "STARLINK-35698", "OBJECT_ID": "2025-262AB", "EPOCH": "2025-12-04T04:00:03.000096", "MEAN_MOTION": 15.56651026, "ECCENTRICITY": 0.0001743, "INCLINATION": 42.9995, "RA_OF_ASC_NODE": 121.176, "ARG_OF_PERICENTER": 272.7549, "MEAN_ANOMALY": 77.1933, "EPHEMERIS_TYPE": 0, "CLASSIFICATION_TYPE": "U", "NORAD_CAT_ID": 66481, "ELEMENT_SET_NO": 999, "REV_AT_EPOCH": 426, "BSTAR": -0.03343, "MEAN_MOTION_DOT": -0.02168956, "MEAN_MOTION_DDOT": 0}, "tle": {"line1": "1 66481U 25262AB  25338.16670139 -.02168956  00000+0 -33430-1 0  9998", "line2": "2 66481  42.9995 121.1760 0001743 272.7549  77.1933 15.56651026  4263"}}, "geometry": {"type": "Point", "coordinates": [-80.4193604682327, 17.604766798368843]}}, {"type": "Feature", "properties": {"norad_id": 66482, "name": "STARLINK-35648", "group": "last-30-days", "lat": 16.369635233845027, "lon": -78.88973079578507, "alt_km": 399.40841339643885, "timestamp": "2025-12-04T10:51:48.875923+00:00", "meta": {"OBJECT_NAME": "STARLINK-35648", "OBJECT_ID": "2025-262AC", "EPOCH": "2025-12-04T04:00:03.000096", "MEAN_MOTION": 15.5664806, "ECCENTRICITY": 0.000175, "INCLINATION": 42.9995, "RA_OF_ASC_NODE": 121.1715, "ARG_OF_PERICENTER": 275.1978, "MEAN_ANOMALY": 76.6686, "EPHEMERIS_TYPE": 0, "CLASSIFICATION_TYPE": "U", "NORAD_CAT_ID": 66482, "ELEMENT_SET_NO": 999, "REV_AT_EPOCH": 410, "BSTAR": -0.033374, "MEAN_MOTION_DOT": -0.0216549, "MEAN_MOTION_DDOT": 0}, "tle": {"line1": "1 66482U 25262AC  25338.16670139 -.02165490  00000+0 -33374-1 0  9996", "line2": "2 66482  42.9995 121.1715 0001750 275.1978  76.6686 15.56648060  4101"}}, "geometry": {"type": "Point", "coordinates": [-78.88973079578507, 16.369635233845027]}}, {"type": "Feature", "properties": {"norad_id": 66483, "name": "STARLINK-35654", "group": "last-30-days", "lat": 15.121638932193875, "lon": -77.3785176543297, "alt_km": 399.4212408706953, "timestamp": "2025-12-04T10:51:48.875935+00:00", "meta": {"OBJECT_NAME": "STARLINK-35654", "OBJECT_ID": "2025-262AD", "EPOCH": "2025-12-04T04:00:03.000096", "MEAN_MOTION": 15.56651063, "ECCENTRICITY": 0.0001616, "INCLINATION": 42.9995, "RA_OF_ASC_NODE": 121.1657, "ARG_OF_PERICENTER": 270.6405, "MEAN_ANOMALY": 83.1437, "EPHEMERIS_TYPE": 0, "CLASSIFICATION_TYPE": "U", "NORAD_CAT_ID": 66483, "ELEMENT_SET_NO": 999, "REV_AT_EPOCH": 426, "BSTAR": -0.033448, "MEAN_MOTION_DOT": -0.0216986, "MEAN_MOTION_DDOT": 0}, "tle": {"line1": "1 66483U 25262AD  25338.16670139 -.02169860  00000+0 -33448-1 0  9994", "line2": "2 66483  42.9995 121.1657 0001616 270.6405  83.1437 15.56651063  4264"}}, "geometry": {"type": "Point", "coordinates": [-77.3785176543297, 15.121638932193875]}}, {"type": "Feature", "properties": {"norad_id": 66484, "name": "STARLINK-35371", "group": "last-30-days", "lat": 13.86605678404086, "lon": -75.88546011347292, "alt_km": 399.63956410038645, "timestamp": "2025-12-04T10:51:48.875945+00:00", "meta": {"OBJECT_NAME": "STARLINK-35371", "OBJECT_ID": "2025-262AE", "EPOCH": "2025-12-04T04:00:03.000096", "MEAN_MOTION": 15.56652615, "ECCENTRICITY": 0.000159, "INCLINATION": 42.9997, "RA_OF_ASC_NODE": 121.1623, "ARG_OF_PERICENTER": 274.1872, "MEAN_ANOMALY": 81.5108, "EPHEMERIS_TYPE": 0, "CLASSIFICATION_TYPE": "U", "NORAD_CAT_ID": 66484, "ELEMENT_SET_NO": 999, "REV_AT_EPOCH": 426, "BSTAR": -0.033447, "MEAN_MOTION_DOT": -0.02169899, "MEAN_MOTION_DDOT": 0}, "tle": {"line1": "1 66484U 25262AE  25338.16670139 -.02169899  00000+0 -33447-1 0  9996", "line2": "2 66484  42.9997 121.1623 0001590 274.1872  81.5108 15.56652615  4269"}}, "geometry": {"type": "Point", "coordinates": [-75.88546011347292, 13.86605678404086]}}, {"type": "Feature", "properties": {"norad_id": 66485, "name": "STARLINK-34774", "group": "last-30-days", "lat": -39.05062371284509, "lon": 113.38671859505064, "alt_km": 368.6194904943168, "timestamp": "2025-12-04T10:51:48.875955+00:00", "meta": {"OBJECT_NAME": "STARLINK-34774", "OBJECT_ID": "2025-263A", "EPOCH": "2025-12-04T04:00:03.000096", "MEAN_MOTION": 15.68550926, "ECCENTRICITY": 0.0001537, "INCLINATION": 42.9991, "RA_OF_ASC_NODE": 175.634, "ARG_OF_PERICENTER": 280.7274, "MEAN_ANOMALY": 195.7597, "EPHEMERIS_TYPE": 0, "CLASSIFICATION_TYPE": "U", "NORAD_CAT_ID": 66485, "ELEMENT_SET_NO": 999, "REV_AT_EPOCH": 425, "BSTAR": -0.01916, "MEAN_MOTION_DOT": -0.01973055, "MEAN_MOTION_DDOT": 0}, "tle": {"line1": "1 66485U 25263A   25338.16670139 -.01973055  00000+0 -19160-1 0  9990", "line2": "2 66485  42.9991 175.6340 0001537 280.7274 195.7597 15.68550926  4258"}}, "geometry": {"type": "Point", "coordinates": [113.38671859505064, -39.05062371284509]}}, {"type": "Feature", "properties": {"norad_id": 66486, "name": "STARLINK-34844", "group": "last-30-days", "lat": -38.38455870131068, "lon": 115.68618051468816, "alt_km": 368.67076091024865, "timestamp": "2025-12-04T10:51:48.875965+00:00", "meta": {"OBJECT_NAME": "STARLINK-34844", "OBJECT_ID": "2025-263B", "EPOCH": "2025-12-04T04:00:03.000096", "MEAN_MOTION": 15.68550032, "ECCENTRICITY": 0.0001481, "INCLINATION": 42.9991, "RA_OF_ASC_NODE": 175.6281, "ARG_OF_PERICENTER": 275.7716, "MEAN_ANOMALY": 202.6348, "EPHEMERIS_TYPE": 0, "CLASSIFICATION_TYPE": "U", "NORAD_CAT_ID": 66486, "ELEMENT_SET_NO": 999, "REV_AT_EPOCH": 420, "BSTAR": -0.019162, "MEAN_MOTION_DOT": -0.01973136, "MEAN_MOTION_DDOT": 0}, "tle": {"line1": "1 66486U 25263B   25338.16670139 -.01973136  00000+0 -19162-1 0  9993", "line2": "2 66486  42.9991 175.6281 0001481 275.7716 202.6348 15.68550032  4201"}}, "geometry": {"type": "Point", "coordinates": [115.68618051468816, -38.38455870131068]}}, {"type": "Feature", "properties": {"norad_id": 66487, "name": "STARLINK-34733", "group": "last-30-days", "lat": -37.677361132479845, "lon": 117.93696020780185, "alt_km": 368.4215662323377, "timestamp": "2025-12-04T10:51:48.875977+00:00", "meta": {"OBJECT_NAME": "STARLINK-34733", "OBJECT_ID": "2025-263C", "EPOCH": "2025-12-03T22:00:03.000096", "MEAN_MOTION": 15.69589261, "ECCENTRICITY": 0.00013189, "INCLINATION": 42.9993, "RA_OF_ASC_NODE": 177.1296, "ARG_OF_PERICENTER": 281.9724, "MEAN_ANOMALY": 224.4884, "EPHEMERIS_TYPE": 0, "CLASSIFICATION_TYPE": "U", "NORAD_CAT_ID": 66487, "ELEMENT_SET_NO": 999, "REV_AT_EPOCH": 421, "BSTAR": -0.018076262, "MEAN_MOTION_DOT": -0.01947234, "MEAN_MOTION_DDOT": 0}, "tle": {"line1": "1 66487U 25263C   25337.91670139 -.01947234  00000+0 -18076-1 0  9999", "line2": "2 66487  42.9993 177.1296 0001318 281.9724 224.4884 15.69589261  4219"}}, "geometry": {"type": "Point", "coordinates": [117.93696020780185, -37.677361132479845]}}, {"type": "Feature", "properties": {"norad_id": 66488, "name": "STARLINK-35515", "group": "last-30-days", "lat": -36.924764729848675, "lon": 120.14773993150266, "alt_km": 368.62174957182015, "timestamp": "2025-12-04T10:51:48.875988+00:00", "meta": {"OBJECT_NAME": "STARLINK-35515", "OBJECT_ID": "2025-263D", "EPOCH": "2025-12-04T04:00:03.000096", "MEAN_MOTION": 15.68547411, "ECCENTRICITY": 0.0001445, "INCLINATION": 42.9992, "RA_OF_ASC_NODE": 175.6191, "ARG_OF_PERICENTER": 279.6824, "MEAN_ANOMALY": 202.5594, "EPHEMERIS_TYPE": 0, "CLASSIFICATION_TYPE": "U", "NORAD_CAT_ID": 66488, "ELEMENT_SET_NO": 999, "REV_AT_EPOCH": 425, "BSTAR": -0.019131, "MEAN_MOTION_DOT": -0.01970085, "MEAN_MOTION_DDOT": 0}, "tle": {"line1": "1 66488U 25263D   25338.16670139 -.01970085  00000+0 -19131-1 0  9991", "line2": "2 66488  42.9992 175.6191 0001445 279.6824 202.5594 15.68547411  4251"}}, "geometry": {"type": "Point", "coordinates": [120.14773993150266, -36.924764729848675]}}]}